APRIZESAT 2             
1 28366U 04025A   26187.90636044  .00000205  00000+0  76637-4 0  9991
2 28366  98.1033 352.7721 0105353 189.8588 170.0535 14.38044829154477
SAUDICOMSAT 1           
1 28369U 04025D   26187.95251036  .00000307  00000+0  81477-4 0  9994
2 28369  98.5772 198.6174 0031365 324.8890  35.0239 14.55489430167005
SAUDICOMSAT 2           
1 28370U 04025E   26188.48202314  .00000169  00000+0  55327-4 0  9991
2 28370  98.6640 201.3020 0055084 197.0981 162.8358 14.49991728163041
APRIZESAT 1             
1 28372U 04025G   26187.93722430  .00000231  00000+0  68865-4 0  9999
2 28372  98.6305 199.2002 0045798  95.1689 265.4734 14.51788668164779
NANOSAT-1               
1 28493U 04049B   26188.17876146  .00000921  00000+0  12844-3 0  9991
2 28493  98.2301 325.3314 0003195 212.5909 147.5105 14.80200097158400
SAUDICOMSAT 7           
1 31119U 07012C   26188.72372087  .00000455  00000+0  90450-4 0  9991
2 31119  98.3791 163.2770 0056665 131.2229 229.3878 14.66131332 25442
SAUDICOMSAT 6           
1 31121U 07012E   26187.86165171  .00000399  00000+0  86135-4 0  9994
2 31121  98.4109 155.7456 0070363 265.5327  93.7833 14.62579457 23067
SAUDICOMSAT 5           
1 31124U 07012H   26188.73656205  .00000597  00000+0  11108-3 0  9994
2 31124  98.3502 164.0328 0048592  61.7914 298.8185 14.68185449 26616
SAUDICOMSAT 3           
1 31125U 07012J   26188.38927799  .00000733  00000+0  12771-3 0  9994
2 31125  98.3156 164.2254 0038833 350.2287   9.8160 14.70741410 27790
SAUDICOMSAT 4           
1 31127U 07012L   26188.71972421  .00000360  00000+0  75839-4 0  9996
2 31127  98.3996 161.7103 0063031 193.1024 166.8544 14.64530981 24294
APRIZESAT 4             
1 35684U 09041D   26188.75612090  .00000543  00000+0  71454-4 0  9991
2 35684  98.1405 264.4862 0041931 254.3409 105.3176 14.83907056914417
APRIZESAT 3             
1 35686U 09041F   26188.36163672  .00001193  00000+0  10759-3 0  9999
2 35686  98.2083 342.5549 0061416   1.6270 358.5138 14.96293772919390
S-NET D                 
1 43186U 18014G   26188.71512510  .00002905  00000+0  15094-3 0  9990
2 43186  97.5338  93.3778 0006672 317.1943  42.8770 15.16872934461875
S-NET B                 
1 43187U 18014H   26188.72698068  .00003091  00000+0  16052-3 0  9997
2 43187  97.5346  93.3769 0007197 311.1821  48.8790 15.16843479461877
S-NET A                 
1 43188U 18014J   26188.71388916  .00002919  00000+0  15162-3 0  9994
2 43188  97.5354  93.5766 0007115 312.0402  48.0225 15.16881285461873
S-NET C                 
1 43189U 18014K   26188.73096397  .00003207  00000+0  16645-3 0  9994
2 43189  97.5371  93.6713 0008253 301.5248  58.5178 15.16835134460426
SALSAT                  
1 46495U 20068K   26187.96288697  .00005977  00000+0  20799-3 0  9990
2 46495  97.8858 192.2352 0008388 224.1445 135.9125 15.30092809318384
OOV-CUBE (TUBSAT-30)    
1 60240U 24128F   26187.41788603  .00002062  00000+0  16592-3 0  9995
2 60240  61.9939 158.5121 0042205 138.0070 222.4270 15.02848993109004
LPNTSAT-001 (IOD-1)     
1 68408U 26065A   26187.97634907  .00002137  00000+0  10621-3 0  9999
2 68408  97.3994  68.0659 0014812 298.4631  61.5110 15.18641368 15263
